[
  {
    "name": "SALSAT",
    "tle1": "1 46495U 20068K   26158.98778249  .00008175  00000-0  28698-3 0  9997",
    "tle2": "2 46495  97.8853 161.4934 0008912 345.1768  14.9208 15.29667638313950",
    "norad_id": "46495"
  },
  {
    "name": "NETSAT-1",
    "tle1": "1 46506U 20068W   26158.94110695  .00013693  00000-0  41285-3 0  9999",
    "tle2": "2 46506  97.8751 159.1088 0006063  58.2539 301.9293 15.34424602313880",
    "norad_id": "46506"
  },
  {
    "name": "NETSAT-2",
    "tle1": "1 46507U 20068X   26158.97285986  .00024750  00000-0  51519-3 0  9996",
    "tle2": "2 46507  97.8623 166.3369 0004698  51.1192 309.0474 15.45603022314316",
    "norad_id": "46507"
  },
  {
    "name": "NETSAT-3",
    "tle1": "1 46505U 20068V   26158.98427105  .00019094  00000-0  44400-3 0  9992",
    "tle2": "2 46505  97.8661 164.7158 0005503  33.0816 327.0773 15.42363292314267",
    "norad_id": "46505"
  },
  {
    "name": "NETSAT-4",
    "tle1": "1 46504U 20068U   26158.98510382  .00018852  00000-0  42126-3 0  9995",
    "tle2": "2 46504  97.8613 166.4883 0005056  15.4925 344.6476 15.43561096314353",
    "norad_id": "46504"
  },
  {
    "name": "DEKART",
    "tle1": "1 46493U 20068H   26159.28908208  .00011463  00000-0  31732-3 0  9996",
    "tle2": "2 46493  97.8746 167.9231 0007523 325.7483  34.3274 15.37146968314402",
    "norad_id": "46493"
  },
  {
    "name": "NORBI",
    "tle1": "1 46494U 20068J   26159.30272934  .00018482  00000-0  35416-3 0  9991",
    "tle2": "2 46494  97.8636 174.4868 0004551 291.1285  68.9478 15.48078819314831",
    "norad_id": "46494"
  },
  {
    "name": "CUBEL",
    "tle1": "1 47448U 21006AM  26158.68169395  .00010733  00000-0  26317-3 0  9991",
    "tle2": "2 47448  97.2339 209.3574 0006246 192.4790 167.6303 15.40875191298299",
    "norad_id": "47448"
  },
  {
    "name": "UNISAT 7",
    "tle1": "1 47945U 21022P   26159.19460864  .00012119  00000-0  30290-3 0  9998",
    "tle2": "2 47945  97.3894  64.0264 0011184 104.4128 255.8360 15.40224372288476",
    "norad_id": "47945"
  },
  {
    "name": "OBJECT F",
    "tle1": "1 47937U 21022F   26159.30754659  .00007438  00000-0  23605-3 0  9990",
    "tle2": "2 47937  97.3899  60.0124 0011493 119.0092 241.2303 15.32907092288359",
    "norad_id": "47937"
  },
  {
    "name": "OBJECT X",
    "tle1": "1 47953U 21022X   26159.09867172  .00109690  00000-0  80515-3 0  9995",
    "tle2": "2 47953  97.3906  75.5608 0007844  95.6262 264.5896 15.72759306289079",
    "norad_id": "47953"
  },
  {
    "name": "CSS (TIANHE-1)",
    "tle1": "1 48274U 21035A   26159.08188283  .00025465  00000-0  30374-3 0  9999",
    "tle2": "2 48274  41.4696  17.3987 0008703   5.5904 354.5031 15.60427341291740",
    "norad_id": "48274"
  },
  {
    "name": "TIANQI-6",
    "tle1": "1 46810U 20076D   26159.19536157  .00003575  00000-0  23478-3 0  9991",
    "tle2": "2 46810  34.9985 103.6468 0009180  90.3834 269.7928 15.07122277307223",
    "norad_id": "46810"
  },
  {
    "name": "TYVAK-0130",
    "tle1": "1 48606U 21041BF  26159.01609371  .00008852  00000-0  33728-3 0  9991",
    "tle2": "2 48606  52.9967  68.6727 0011025 135.6781 224.5101 15.27444303278982",
    "norad_id": "48606"
  },
  {
    "name": "TYVAK-182A",
    "tle1": "1 48271U 21034D   26159.16193462  .00004594  00000-0  31850-3 0  9999",
    "tle2": "2 48271  97.5730 218.2365 0005945  18.8318 341.3128 15.06088715278475",
    "norad_id": "48271"
  },
  {
    "name": "AII-BRAVO",
    "tle1": "1 48270U 21034C   26159.10286827  .00005678  00000-0  42167-3 0  9997",
    "tle2": "2 48270  97.5616 214.2194 0004855 299.6539  60.4203 15.03408293278259",
    "norad_id": "48270"
  },
  {
    "name": "STARLINK-2342",
    "tle1": "1 47883U 21021Z   26159.33337963  .00081126  00000-0  49667-3 0  9999",
    "tle2": "2 47883  53.1552 192.3697 0001658  65.4122  22.4819 15.76649588  5943",
    "norad_id": "47883"
  },
  {
    "name": "KSM1-A",
    "tle1": "1 46912U 20081H   26159.26390999  .00008216  00000-0  31724-3 0  9990",
    "tle2": "2 46912  36.8953 116.3533 0004621 250.4367 109.5883 15.25816140307816",
    "norad_id": "46912"
  },
  {
    "name": "KSM1-B",
    "tle1": "1 46914U 20081K   26159.19188968  .00007173  00000-0  28957-3 0  9990",
    "tle2": "2 46914  36.9008 123.8892 0006358 218.9379 141.0912 15.24384267310819",
    "norad_id": "46914"
  },
  {
    "name": "KSM1-C",
    "tle1": "1 46906U 20081B   26159.26525150  .00008614  00000-0  32479-3 0  9992",
    "tle2": "2 46906  36.8941 114.0175 0001383 199.6365 160.4331 15.26589314307801",
    "norad_id": "46906"
  },
  {
    "name": "KSM1-D",
    "tle1": "1 46907U 20081C   26159.25516779  .00007267  00000-0  29159-3 0  9993",
    "tle2": "2 46907  36.8954 122.9165 0004119 206.4458 153.6081 15.24592340307732",
    "norad_id": "46907"
  },
  {
    "name": "ARKTIKA-M 1",
    "tle1": "1 47719U 21016A   26153.03917935 -.00000200  00000-0  00000-0 0  9995",
    "tle2": "2 47719  63.2379  59.8266 7283240 269.8643  14.6915  2.00628509 38481",
    "norad_id": "47719"
  },
  {
    "name": "ICEYE-X6",
    "tle1": "1 46497U 20068M   26159.27919249  .00002728  00000-0  19972-3 0  9992",
    "tle2": "2 46497  98.0962 152.5256 0008525 115.3269 244.8839 15.04468556311893",
    "norad_id": "46497"
  },
  {
    "name": "R2",
    "tle1": "1 46913U 20081J   26159.28219685  .00006926  00000-0  27206-3 0  9991",
    "tle2": "2 46913  36.8971 116.1716 0008293 218.0546 141.9618 15.25303959310624",
    "norad_id": "46913"
  },
  {
    "name": "GLOBAL-9",
    "tle1": "1 47971U 21023G   26158.11176179  .00024138  00000-0  48586-3 0  9993",
    "tle2": "2 47971  44.9822 307.1421 0005324 267.1499  92.8782 15.46210962293386",
    "norad_id": "47971"
  },
  {
    "name": "GRUS-1B",
    "tle1": "1 47934U 21022C   26159.29851068  .00002077  00000-0  17583-3 0  9999",
    "tle2": "2 47934  97.5404  42.7876 0016412   0.0456   0.0766 14.98976323284567",
    "norad_id": "47934"
  },
  {
    "name": "GONETS M 19",
    "tle1": "1 46488U 20068C   26159.29386271  .00000026  00000-0  11434-3 0  9991",
    "tle2": "2 46488  82.4971 352.6063 0014468  67.3960 292.8649 12.42891864258147",
    "norad_id": "46488"
  },
  {
    "name": "GONETS M 20",
    "tle1": "1 47227U 20091A   26159.23188840  .00000087  00000-0  55749-3 0  9999",
    "tle2": "2 47227  82.5045 308.0038 0020750 197.4405 162.5964 12.42893541249966",
    "norad_id": "47227"
  },
  {
    "name": "GONETS M 21",
    "tle1": "1 47228U 20091B   26159.28620463  .00000105  00000-0  68894-3 0  9993",
    "tle2": "2 47228  82.4969 306.6824 0014350 210.6591 149.3651 12.42886653249963",
    "norad_id": "47228"
  },
  {
    "name": "GONETS M 22",
    "tle1": "1 47229U 20091C   26159.25933992  .00000061  00000-0  36775-3 0  9999",
    "tle2": "2 47229  82.5028 307.5937 0021687 192.7834 167.2699 12.42892540249915",
    "norad_id": "47229"
  }
]