OBJECT_NAME,OBJECT_ID,EPOCH,MEAN_MOTION,ECCENTRICITY,INCLINATION,RA_OF_ASC_NODE,ARG_OF_PERICENTER,MEAN_ANOMALY,EPHEMERIS_TYPE,CLASSIFICATION_TYPE,NORAD_CAT_ID,ELEMENT_SET_NO,REV_AT_EPOCH,BSTAR,MEAN_MOTION_DOT,MEAN_MOTION_DDOT
GONETS-M 19,2020-068C,2026-06-08T07:03:09.738144,12.42891864,.00144681,82.4971,352.6063,67.3960,292.8649,0,U,46488,999,25814,.11433651E-3,.26E-6,0
DEKART,2020-068H,2026-06-08T06:56:16.691712,15.37146968,.00075234,97.8746,167.9231,325.7483,34.3274,0,U,46493,999,31440,.31732339E-3,.11463E-3,0
NORBI,2020-068J,2026-06-08T07:15:55.814976,15.48078819,.00045514,97.8636,174.4868,291.1285,68.9478,0,U,46494,999,31483,.35415673E-3,.18482E-3,0
SALSAT,2020-068K,2026-06-07T23:42:24.407136,15.29667638,.00089117,97.8853,161.4934,345.1768,14.9208,0,U,46495,999,31395,.28698063E-3,.8175E-4,0
ICEYE-X6,2020-068M,2026-06-08T06:42:02.231136,15.04468556,.00085248,98.0962,152.5256,115.3269,244.8839,0,U,46497,999,31189,.19972264E-3,.2728E-4,0
NETSAT-4,2020-068U,2026-06-07T23:38:32.970048,15.43561096,.00050562,97.8613,166.4883,15.4925,344.6476,0,U,46504,999,31435,.42125856E-3,.18852E-3,0
NETSAT-3,2020-068V,2026-06-07T23:37:21.018720,15.42363292,.00055034,97.8661,164.7158,33.0816,327.0773,0,U,46505,999,31426,.44400088E-3,.19094E-3,0
NETSAT-1,2020-068W,2026-06-07T22:35:11.640480,15.34424602,.00060634,97.8751,159.1088,58.2539,301.9293,0,U,46506,999,31388,.41284886E-3,.13693E-3,0
NETSAT-2,2020-068X,2026-06-07T23:20:55.091904,15.45603022,.00046978,97.8623,166.3369,51.1192,309.0474,0,U,46507,999,31431,.51519351E-3,.2475E-3,0
TIANQI-6,2020-076D,2026-06-08T04:41:19.239648,15.07122277,.00091803,34.9985,103.6468,90.3834,269.7928,0,U,46810,999,30722,.23478341E-3,.3575E-4,0
KSM1-C,2020-081B,2026-06-08T06:21:57.729600,15.26589314,.0001383,36.8941,114.0175,199.6365,160.4331,0,U,46906,999,30780,.32479181E-3,.8614E-4,0
KSM1-D,2020-081C,2026-06-08T06:07:26.497056,15.24592340,.00041186,36.8954,122.9165,206.4458,153.6081,0,U,46907,999,30773,.29159448E-3,.7267E-4,0
KSM1-A,2020-081H,2026-06-08T06:20:01.823136,15.25816140,.00046207,36.8953,116.3533,250.4367,109.5883,0,U,46912,999,30781,.31724369E-3,.8216E-4,0
R2,2020-081J,2026-06-08T06:46:21.807840,15.25303959,.00082926,36.8971,116.1716,218.0546,141.9618,0,U,46913,999,31062,.2720624E-3,.6926E-4,0
KSM1-B,2020-081K,2026-06-08T04:36:19.268352,15.24384267,.00063575,36.9008,123.8892,218.9379,141.0912,0,U,46914,999,31081,.28957355E-3,.7173E-4,0
GONETS-M 20,2020-091A,2026-06-08T05:33:55.157760,12.42893541,.002075,82.5045,308.0038,197.4405,162.5964,0,U,47227,999,24996,.55749327E-3,.87E-6,0
GONETS-M 21,2020-091B,2026-06-08T06:52:08.080032,12.42886653,.00143502,82.4969,306.6824,210.6591,149.3651,0,U,47228,999,24996,.68893561E-3,.105E-5,0
GONETS-M 22,2020-091C,2026-06-08T06:13:26.969088,12.42892540,.00216869,82.5028,307.5937,192.7834,167.2699,0,U,47229,999,24991,.36775454E-3,.61E-6,0
CUBEL,2021-006AM,2026-06-07T16:21:38.357280,15.40875191,.00062461,97.2339,209.3574,192.4790,167.6303,0,U,47448,999,29829,.26316768E-3,.10733E-3,0
ARKTIKA-M 1,2021-016A,2026-06-02T00:56:25.095840,2.00628509,.72832396,63.2379,59.8266,269.8643,14.6915,0,U,47719,999,3848,0,-.2E-5,0
STARLINK-2342,2021-021Z,2026-06-08T08:00:04.000032,15.76649588,.00016577,53.1552,192.3697,65.4122,22.4819,0,U,47883,999,594,.49666633E-3,.81126E-3,0
GRUS-1B,2021-022C,2026-06-08T07:09:51.322752,14.98976323,.00164119,97.5404,42.7876,0.0456,0.0766,0,U,47934,999,28456,.17583468E-3,.2077E-4,0
2021-022F,2021-022F,2026-06-08T07:22:52.025376,15.32907092,.00114935,97.3899,60.0124,119.0092,241.2303,0,U,47937,999,28835,.23605171E-3,.7438E-4,0
UNISAT-7,2021-022P,2026-06-08T04:40:14.186496,15.40224372,.00111838,97.3894,64.0264,104.4128,255.8360,0,U,47945,999,28847,.30289549E-3,.12119E-3,0
2021-022X,2021-022X,2026-06-08T02:22:05.236608,15.72759306,.00078443,97.3906,75.5608,95.6262,264.5896,0,U,47953,999,28907,.80514589E-3,.10969E-2,0
GLOBAL-9,2021-023G,2026-06-07T02:40:56.218656,15.46210962,.0005324,44.9822,307.1421,267.1499,92.8782,0,U,47971,999,29338,.48586E-3,.24138E-3,0
AII-BRAVO,2021-034C,2026-06-08T02:28:07.818528,15.03408293,.00048553,97.5616,214.2194,299.6539,60.4203,0,U,48270,999,27825,.42167428E-3,.5678E-4,0
TYVAK-182A,2021-034D,2026-06-08T03:53:11.151168,15.06088715,.00059453,97.5730,218.2365,18.8318,341.3128,0,U,48271,999,27847,.31850322E-3,.4594E-4,0
CSS (TIANHE),2021-035A,2026-06-08T01:57:54.676512,15.60427341,.00087027,41.4696,17.3987,5.5904,354.5031,0,U,48274,999,29174,.30374166E-3,.25465E-3,0
TYVAK-0130,2021-041BF,2026-06-08T00:23:10.496544,15.27444303,.00110251,52.9967,68.6727,135.6781,224.5101,0,U,48606,999,27898,.33728326E-3,.8852E-4,0
